EUTELSAT 139 WEST A     
1 28187U 04008A   26013.53130972  .00000087  00000+0  00000+0 0  9993
2 28187   5.4330  73.8770 0019385 202.9205 248.4698  1.00554299 79801
EUTELSAT 174A           
1 28924U 05052A   26014.90803677  .00000024  00000+0  00000+0 0  9994
2 28924   3.8299  78.4577 0006253 219.0392 317.7932  1.00269480 50791
EUTELSAT 33F            
1 29270U 06032A   26015.30810457  .00000173  00000+0  00000+0 0  9992
2 29270   1.2668  84.0635 0003395 218.1326 316.5429  1.00273052 45777
EUTELSAT HOTBIRD 13C    
1 33459U 08065A   26015.43420534 -.00000267  00000+0  00000+0 0  9996
2 33459   2.5577  81.0507 0002990 222.9991 276.8359  1.00271425 45817
EUTELSAT 36B            
1 36101U 09065A   26015.45422546  .00000130  00000+0  00000+0 0  9999
2 36101   0.1066  67.0379 0005326 231.2621  30.6379  1.00274688 59177
EUTELSAT KA-SAT 9A      
1 37258U 10069A   26015.37466498  .00000080  00000+0  00000+0 0  9998
2 37258   0.0492 346.0571 0002172 187.3641  85.2497  1.00271358 42479
EUTELSAT 7 WEST A       
1 37816U 11051A   26015.37145830 -.00000042  00000+0  00000+0 0  9993
2 37816   0.0614   2.1884 0004049 236.3517   2.6862  1.00271797 52347
EUTELSAT 16A            
1 37836U 11057A   26015.30472457  .00000123  00000+0  00000+0 0  9991
2 37836   0.0552 350.7758 0005632 305.7813 303.9191  1.00275123  5797
